[Satellite]
VERSION=1.1
NAME=GSAT0216 (PRN E25)
NICKNAME=GSAT0216 (PRN E25)
TLE1=1 43056U 17079B   20153.57997741 -.00000045  00000-0  00000+0 0  9991
TLE2=2 43056  56.2820 282.2324 0003119 258.7217 101.2198  1.70474494 15358
STATUS=0
